[{"OBJECT_NAME":"STARLINK-32452","OBJECT_ID":"2024-210C","EPOCH":"2026-03-09T08:58:34.648032","MEAN_MOTION":15.27602569,"ECCENTRICITY":0.00020409,"INCLINATION":42.9996,"RA_OF_ASC_NODE":174.5182,"ARG_OF_PERICENTER":276.0665,"MEAN_ANOMALY":83.9954,"EPHEMERIS_TYPE":0,"CLASSIFICATION_TYPE":"U","NORAD_CAT_ID":61961,"ELEMENT_SET_NO":999,"REV_AT_EPOCH":7494,"BSTAR":0.0013963115,"MEAN_MOTION_DOT":0.00038389,"MEAN_MOTION_DDOT":0},{"OBJECT_NAME":"JINJUSAT-1B","OBJECT_ID":"2025-052A","EPOCH":"2026-03-09T15:55:38.242848","MEAN_MOTION":15.30194857,"ECCENTRICITY":0.00055504,"INCLINATION":97.4113,"RA_OF_ASC_NODE":325.4613,"ARG_OF_PERICENTER":82.193,"MEAN_ANOMALY":277.9941,"EPHEMERIS_TYPE":0,"CLASSIFICATION_TYPE":"U","NORAD_CAT_ID":63210,"ELEMENT_SET_NO":999,"REV_AT_EPOCH":5486,"BSTAR":0.00068430401,"MEAN_MOTION_DOT":0.00019955,"MEAN_MOTION_DDOT":0}]
