STARLINK-32452          
1 61961U 24210C   26068.37401213  .00038389  00000+0  13963-2 0  9999
2 61961  42.9996 174.5182 0002040 276.0665  83.9954 15.27602569 74945
JINJUSAT-1B             
1 63210U 25052A   26068.66363707  .00019955  00000+0  68430-3 0  9998
2 63210  97.4113 325.4613 0005550  82.1930 277.9941 15.30194857 54866
